{
  "norad_id": 66211,
  "name": "STARLINK-35723",
  "history": [
    {
      "epoch": "2026-03-28T13:33:34.164864Z",
      "apogee_km": 475.9951172583842,
      "perigee_km": 474.37910343316435,
      "latitude_deg": -1.2412520278432008e-05,
      "longitude_deg": 112.56423287924838,
      "height_km": 475.9271045539432,
      "semi_major_axis_km": 6853.324110345774,
      "eccentricity": 0.0001179,
      "inclination_deg": 53.1583,
      "raan_deg": 141.9402,
      "arg_perigee_deg": 78.7191,
      "mean_anomaly_deg": 281.3942,
      "mean_motion_rev_day": 15.30209364
    }
  ]
}